
{
  "type": "Feature",
  "properties": {},
  "geometry": {
    "type": "Polygon",
    "coordinates": [
      [
        [ -84.81541400035358, 39.51807199984075 ],
        [ -84.81536600036263, 39.52289700064438 ],
        [ -84.82170099957887, 39.522975999983046 ],
        [ -84.82803599962837, 39.52305500050555 ],
        [ -84.83437100019029, 39.5231330012745 ],
        [ -84.84072399993622, 39.52316700013992 ],
        [ -84.84707799974242, 39.52320100045687 ],
        [ -84.85343199975766, 39.523234000675735 ],
        [ -84.85975899988937, 39.52329500006266 ],
        [ -84.86608499973052, 39.523355000192254 ],
        [ -84.872412000486, 39.523416001009224 ],
        [ -84.87874000028995, 39.523520000355504 ],
        [ -84.88506800055693, 39.52362500084829 ],
        [ -84.89139600045698, 39.523729000594614 ],
        [ -84.89771499978737, 39.52385499988122 ],
        [ -84.90403299963458, 39.523981000378114 ],
        [ -84.91035199976173, 39.524107001275006 ],
        [ -84.91670500009029, 39.52420900019458 ],
        [ -84.92305899995085, 39.5243110000453 ],
        [ -84.92941199955364, 39.52441300106914 ],
        [ -84.93277500017867, 39.52438000108156 ],
        [ -84.93613800014917, 39.524347000917594 ],
        [ -84.942246999892, 39.52424400043197 ],
        [ -84.94835700045039, 39.524141000457455 ],
        [ -84.9545389996518, 39.52402200023531 ],
        [ -84.96072099951394, 39.52390400129352 ],
        [ -84.96690300054735, 39.523785000845244 ],
        [ -84.97321799953289, 39.523881000610984 ],
        [ -84.97953299971549, 39.52397700024221 ],
        [ -84.98584900035591, 39.52407300084466 ],
        [ -84.99188300005432, 39.524167999623984 ],
        [ -84.99791699949466, 39.52426300020821 ],
        [ -85.0039499998717, 39.52435899991236 ],
        [ -85.01014699971599, 39.5244530006764 ],
        [ -85.01634399986618, 39.524546999604325 ],
        [ -85.02254100018007, 39.52464100120084 ],
        [ -85.0225169995139, 39.52608999997196 ],
        [ -85.02707699981217, 39.5261330009309 ],
        [ -85.03163599955472, 39.5261759995664 ],
        [ -85.03626499960467, 39.52621999585618 ],
        [ -85.03626599994047, 39.5262200019495 ],
        [ -85.0425170001095, 39.526231000325495 ],
        [ -85.04876799960293, 39.5262430009218 ],
        [ -85.05501899990327, 39.526255001006426 ],
        [ -85.06125600046846, 39.52628599969001 ],
        [ -85.06749300044515, 39.526317001179365 ],
        [ -85.07372999968932, 39.52634700000772 ],
        [ -85.07990700024864, 39.526400000082134 ],
        [ -85.08608499943745, 39.52645199968331 ],
        [ -85.09226199994512, 39.52650400016309 ],
        [ -85.09851100001117, 39.52651200047792 ],
        [ -85.10476100058412, 39.52651999970091 ],
        [ -85.11100999972997, 39.52652700020294 ],
        [ -85.11722700049329, 39.52655699976828 ],
        [ -85.12344400035819, 39.526587000701056 ],
        [ -85.12966100052209, 39.526617001221545 ],
        [ -85.13552300051505, 39.52658700061582 ],
        [ -85.14138500044064, 39.526558000482765 ],
        [ -85.1472470003676, 39.52652900075839 ],
        [ -85.14812399981835, 39.52651799963487 ],
        [ -85.1540749994343, 39.52644299978279 ],
        [ -85.16002600050965, 39.52636800026266 ],
        [ -85.1659780001015, 39.52629299969443 ],
        [ -85.16663799958904, 39.52628500001541 ],
        [ -85.16897199947017, 39.526277000730104 ],
        [ -85.17425000050703, 39.52625800065102 ],
        [ -85.1795289998553, 39.52623899970346 ],
        [ -85.18480799996189, 39.52622100026465 ],
        [ -85.1856150002536, 39.52624800106772 ],
        [ -85.19166700030364, 39.526170000204594 ],
        [ -85.19771800006528, 39.52609399998796 ],
        [ -85.20376899993869, 39.52601700050029 ],
        [ -85.20469899956217, 39.52601299973262 ],
        [ -85.21032299992561, 39.52590700011767 ],
        [ -85.21594700044683, 39.52579999999475 ],
        [ -85.22157000048276, 39.52569400042456 ],
        [ -85.22306199960403, 39.525706000853724 ],
        [ -85.2292940004296, 39.52566699961258 ],
        [ -85.23552499975894, 39.52562700084401 ],
        [ -85.24175500011177, 39.52558700032346 ],
        [ -85.24788199993186, 39.5255990007563 ],
        [ -85.25400800000135, 39.52561000067975 ],
        [ -85.26013400003501, 39.52562099998503 ],
        [ -85.26653099973169, 39.52557700126378 ],
        [ -85.2729280005435, 39.52553200049769 ],
        [ -85.2793259997848, 39.525488000908844 ],
        [ -85.28004500054418, 39.525496000718235 ],
        [ -85.28606400043078, 39.52549000129928 ],
        [ -85.29208200009481, 39.52548400045009 ],
        [ -85.29807625193544, 39.52547702911286 ],
        [ -85.29807630335753, 39.52548049773022 ],
        [ -85.29861389833562, 39.52548068306591 ],
        [ -85.29862815532285, 39.520266045064105 ],
        [ -85.29844721904342, 39.51284130188527 ],
        [ -85.2984327685455, 39.51211903066087 ],
        [ -85.298371582625, 39.509060694903766 ],
        [ -85.29829901520166, 39.50543320906108 ],
        [ -85.29825503449938, 39.503004087976834 ],
        [ -85.29824155634866, 39.50225961167632 ],
        [ -85.29824138069192, 39.50218519435717 ],
        [ -85.2982316708618, 39.49808368673338 ],
        [ -85.29823165716331, 39.49807819324629 ],
        [ -85.29823147578014, 39.498001287282555 ],
        [ -85.29823144170189, 39.49799643860009 ],
        [ -85.29823096456828, 39.49792779571534 ],
        [ -85.2981796519209, 39.49055075010568 ],
        [ -85.29814660282571, 39.48579905171878 ],
        [ -85.29812878624617, 39.483237254336544 ],
        [ -85.29812848083868, 39.48319331608501 ],
        [ -85.29812876753618, 39.483149365779056 ],
        [ -85.29817686932056, 39.475788649956414 ],
        [ -85.29794260673528, 39.46836962924382 ],
        [ -85.2979411400826, 39.46832320248483 ],
        [ -85.29794108860898, 39.4683213078585 ],
        [ -85.29793976566356, 39.468272895627855 ],
        [ -85.29793033771729, 39.46792795022297 ],
        [ -85.2977374999549, 39.46087133612151 ],
        [ -85.29772713755612, 39.46029959275578 ],
        [ -85.29768797360828, 39.45813838775404 ],
        [ -85.29760304506613, 39.45345152652887 ],
        [ -85.29760229912755, 39.45341034855786 ],
        [ -85.29761819504947, 39.45341023171432 ],
        [ -85.29761791909208, 39.45338792641528 ],
        [ -85.297612908273, 39.45298340125812 ],
        [ -85.29758060221961, 39.451804797763344 ],
        [ -85.29757198266097, 39.44967936577509 ],
        [ -85.29749554783365, 39.44596111049162 ],
        [ -85.29748397363105, 39.44225470559059 ],
        [ -85.29746586065659, 39.44047838218564 ],
        [ -85.29745886196672, 39.43979204877901 ],
        [ -85.29744536898366, 39.4384687985349 ],
        [ -85.2974452585881, 39.43817720222966 ],
        [ -85.29744472083372, 39.43675258529031 ],
        [ -85.29744335255042, 39.43312798669253 ],
        [ -85.29743909104987, 39.429449149031505 ],
        [ -85.29743489521019, 39.425825190533054 ],
        [ -85.29731857238369, 39.422157744489745 ],
        [ -85.29720225945734, 39.41849029644666 ],
        [ -85.2970859588596, 39.41482284193461 ],
        [ -85.29696966688432, 39.41115538990936 ],
        [ -85.29687780815205, 39.40743516367538 ],
        [ -85.29678596020885, 39.403714933618566 ],
        [ -85.29669411954674, 39.399994700588664 ],
        [ -85.29660228725821, 39.39627446730483 ],
        [ -85.2965346481688, 39.39257367916771 ],
        [ -85.29646701381813, 39.388872888057975 ],
        [ -85.29642851308797, 39.38517218629824 ],
        [ -85.29639048276044, 39.38147158930215 ],
        [ -85.29630296904281, 39.377757947030375 ],
        [ -85.29621593097045, 39.374044404162696 ],
        [ -85.29622313225178, 39.37037576121169 ],
        [ -85.29623031182518, 39.3667171475591 ],
        [ -85.29617695377318, 39.3630159595457 ],
        [ -85.29612373741365, 39.359324353619726 ],
        [ -85.2961153297374, 39.35563206469633 ],
        [ -85.2961068321974, 39.35190070575813 ],
        [ -85.29752202754088, 39.351905835278515 ],
        [ -85.2974728327872, 39.34914981852963 ],
        [ -85.29740815528223, 39.34552615649526 ],
        [ -85.29734643648656, 39.34203866568074 ],
        [ -85.29727881626054, 39.338278824704744 ],
        [ -85.29717817940781, 39.33459051390382 ],
        [ -85.29694372091019, 39.33089718093396 ],
        [ -85.29691247856009, 39.32725451900877 ],
        [ -85.29687984414775, 39.32411958059526 ],
        [ -85.29687110733735, 39.32363329309203 ],
        [ -85.29680394491157, 39.31992741919785 ],
        [ -85.29673144688883, 39.316221445248296 ],
        [ -85.29666004983093, 39.31251548166052 ],
        [ -85.296588659033, 39.30880951511679 ],
        [ -85.29651199682424, 39.30511783315967 ],
        [ -85.29643537241682, 39.3014276930525 ],
        [ -85.29641247983048, 39.297734350288415 ],
        [ -85.29638958841934, 39.294041004510866 ],
        [ -85.29639329113185, 39.29042247925859 ],
        [ -85.29639699131053, 39.28680395281071 ],
        [ -85.29641820952398, 39.28313905960457 ],
        [ -85.29643942558079, 39.27947416243516 ],
        [ -85.29643631517895, 39.27583436978311 ],
        [ -85.29643646270549, 39.27219174488961 ],
        [ -85.29643660974698, 39.26855076856309 ],
        [ -85.29643661844945, 39.26833373598685 ],
        [ -85.29643662320338, 39.268214266071475 ],
        [ -85.29014399978695, 39.271469000600995 ],
        [ -85.28381800033492, 39.274739999771974 ],
        [ -85.27749200040533, 39.27801200040658 ],
        [ -85.2745540000994, 39.279422999862746 ],
        [ -85.2699239994173, 39.28177600100152 ],
        [ -85.26529399947944, 39.28413000131208 ],
        [ -85.2619639995881, 39.285846999581366 ],
        [ -85.25863500052137, 39.2875640005054 ],
        [ -85.25231300045508, 39.290799999670845 ],
        [ -85.24599100025426, 39.294034999570044 ],
        [ -85.2397379996601, 39.29731100068817 ],
        [ -85.23537900023237, 39.29953400087834 ],
        [ -85.23102099977854, 39.301757000483384 ],
        [ -85.2266620001598, 39.30398000069949 ],
        [ -85.22233000041072, 39.30631099967309 ],
        [ -85.21799799941131, 39.308641000796946 ],
        [ -85.21307599963362, 39.308663001003005 ],
        [ -85.20815399942573, 39.30868399996423 ],
        [ -85.20194800028736, 39.30871700094967 ],
        [ -85.19574199953311, 39.30875000131815 ],
        [ -85.18953700040939, 39.308783000455065 ],
        [ -85.1847509998461, 39.309287001268764 ],
        [ -85.17996500024151, 39.309791000053835 ],
        [ -85.17520199963974, 39.30984100102364 ],
        [ -85.17043799967549, 39.30989100105846 ],
        [ -85.16420699970664, 39.30992400122612 ],
        [ -85.15797599984853, 39.309958000014035 ],
        [ -85.15174500022393, 39.30999099991437 ],
        [ -85.1454010002056, 39.31007799975886 ],
        [ -85.13905599962445, 39.310165001342774 ],
        [ -85.13271200042432, 39.31025200057964 ],
        [ -85.12636500014798, 39.31028500073174 ],
        [ -85.12001799956212, 39.31031900043781 ],
        [ -85.11367099991675, 39.310352000414404 ],
        [ -85.1090049999752, 39.31028899973785 ],
        [ -85.10433999984407, 39.310227001247284 ],
        [ -85.09967400031778, 39.310165001148995 ],
        [ -85.09470699984409, 39.3101550008839 ],
        [ -85.08856200028131, 39.31009800031227 ],
        [ -85.08241699998979, 39.310041000278154 ],
        [ -85.0762729998754, 39.30998400110618 ],
        [ -85.07068799963903, 39.31003200095442 ],
        [ -85.06510500040905, 39.310079000777186 ],
        [ -85.06568999940271, 39.30720800091031 ],
        [ -85.0618089997138, 39.307200001227734 ],
        [ -85.05792900009347, 39.30719200040952 ],
        [ -85.05171900024567, 39.30712999969237 ],
        [ -85.04550899966772, 39.307066999719005 ],
        [ -85.03929899965651, 39.3070049997917 ],
        [ -85.03376399949732, 39.30698399988775 ],
        [ -85.0282300001929, 39.30696300031656 ],
        [ -85.02269500008892, 39.306941999645055 ],
        [ -85.02155800019138, 39.30695099982697 ],
        [ -85.0157100001736, 39.30689899957816 ],
        [ -85.00986200014542, 39.306847000747915 ],
        [ -85.00401400019557, 39.30679500063266 ],
        [ -85.00271700001767, 39.30678599973936 ],
        [ -84.99686900053443, 39.30674399974439 ],
        [ -84.99102099982875, 39.30670300030988 ],
        [ -84.98517299970203, 39.306662000476415 ],
        [ -84.98457500034816, 39.30665800016777 ],
        [ -84.97851600039546, 39.30662100098858 ],
        [ -84.97245699992888, 39.30658499967473 ],
        [ -84.96639900052271, 39.30654900102748 ],
        [ -84.96591200025544, 39.30654500006595 ],
        [ -84.9597829997307, 39.30650500103542 ],
        [ -84.95365200010981, 39.30646399956529 ],
        [ -84.94752200032951, 39.306423000559576 ],
        [ -84.94723699955168, 39.30642100088793 ],
        [ -84.9411610004505, 39.3064160011211 ],
        [ -84.93508600034419, 39.306411999793234 ],
        [ -84.9290109996896, 39.306408000812866 ],
        [ -84.92340299945155, 39.30633100074289 ],
        [ -84.91779499978476, 39.306254999695966 ],
        [ -84.91218800033266, 39.3061780010359 ],
        [ -84.91165000055615, 39.30615200036646 ],
        [ -84.91086699998586, 39.30614700104847 ],
        [ -84.90517600007452, 39.3061090007489 ],
        [ -84.89948600016547, 39.30607300044525 ],
        [ -84.89379499996633, 39.306035999892956 ],
        [ -84.89313699980076, 39.306015999899785 ],
        [ -84.88707500011478, 39.30594699977281 ],
        [ -84.88101200000219, 39.30587700046465 ],
        [ -84.87495000007482, 39.30580799975245 ],
        [ -84.87128300044046, 39.305731000765554 ],
        [ -84.86761500051728, 39.30565400117165 ],
        [ -84.86189000019178, 39.30564600003138 ],
        [ -84.8561650003588, 39.30563900078983 ],
        [ -84.85007200036974, 39.305527000228764 ],
        [ -84.84397900027409, 39.305415001166324 ],
        [ -84.83788600016854, 39.30530300089903 ],
        [ -84.83172099945426, 39.30527600044123 ],
        [ -84.82555600033933, 39.305249000985704 ],
        [ -84.81943438975755, 39.305222191186736 ],
        [ -84.8193909994447, 39.30522199976318 ],
        [ -84.81931899995136, 39.3101060006374 ],
        [ -84.81924600031931, 39.31498999983627 ],
        [ -84.81917300036092, 39.31987499993941 ],
        [ -84.81910500020386, 39.32460400042706 ],
        [ -84.81903799939285, 39.32933400097056 ],
        [ -84.81897000011111, 39.334064000999405 ],
        [ -84.81890600033869, 39.339035001144715 ],
        [ -84.81884200054245, 39.34400600113191 ],
        [ -84.81877700045162, 39.348977001125796 ],
        [ -84.81867599940703, 39.3538580010304 ],
        [ -84.81857499952064, 39.35873800077541 ],
        [ -84.81847299961655, 39.36361899971556 ],
        [ -84.81834500026626, 39.36816900104292 ],
        [ -84.81821600008924, 39.37271900097311 ],
        [ -84.81808700049845, 39.37726800021518 ],
        [ -84.81797899956338, 39.38210999994803 ],
        [ -84.81787100055169, 39.38695199962701 ],
        [ -84.81776299992522, 39.391794000987915 ],
        [ -84.8176530003399, 39.39662200098538 ],
        [ -84.81754200052458, 39.401451001104725 ],
        [ -84.81743199997253, 39.40628000007826 ],
        [ -84.81732500009527, 39.41111000128995 ],
        [ -84.81721700008316, 39.41593999987499 ],
        [ -84.81711099999278, 39.42076999989591 ],
        [ -84.81701400003553, 39.42574299967528 ],
        [ -84.8169169998046, 39.430715000056395 ],
        [ -84.81682099980138, 39.43568700095329 ],
        [ -84.8167260004298, 39.44066000061944 ],
        [ -84.81663200040938, 39.445632000749626 ],
        [ -84.81653799958673, 39.45060399972513 ],
        [ -84.81645999966969, 39.455424000850094 ],
        [ -84.81638200013894, 39.46024300016816 ],
        [ -84.81630399984581, 39.46506200130324 ],
        [ -84.81621700037553, 39.469836001015885 ],
        [ -84.81612999948631, 39.47461099990956 ],
        [ -84.81604300049312, 39.47938599980866 ],
        [ -84.81596699999832, 39.48423600110573 ],
        [ -84.81589099995904, 39.4890849996624 ],
        [ -84.8158140003129, 39.493934000145224 ],
        [ -84.81571299964115, 39.49876400111928 ],
        [ -84.81561199957704, 39.50359300111971 ],
        [ -84.81551100017845, 39.50842200108383 ],
        [ -84.81546200021603, 39.51324700002622 ],
        [ -84.81541400035358, 39.51807199984075 ]
      ]
    ]
  }
}
