{
  "type": "FeatureCollection",
  "features": [
    {
      "type": "Feature",
      "properties": {
        "Cemetery_Name": "St Ann's",
        "Other_Names": "Hamburg Catholic",
        "Township": "Salt Creek Township",
        "Birth_Year": 1812,
        "Death_Year": 1869,
        "First_Name": "Archaleus",
        "Last_Name": "Shirley",
        "Row_Number": "Row 2",
        "Plot_Number": "Plot 14",
        "Photo_URL": "https://unsplash.com",
        "Condition_Notes": "Tombstone Material: Limestone. Status: Damaged base, clear inscription. Mapped perimeter via GaiaGPS bounds logs."
      },
      "geometry": {
        "type": "Point",
        "coordinates": [-85.2467, 39.3864]
      }
    },
    {
      "type": "Feature",
      "properties": {
        "Cemetery_Name": "St Cecelia of Rome",
        "Other_Names": "Oak Forest Catholic",
        "Township": "Butler Township",
        "Birth_Year": 1834,
        "Death_Year": 1873,
        "First_Name": "Mary",
        "Last_Name": "Oak",
        "Row_Number": "Row 5",
        "Plot_Number": "Plot 02",
        "Photo_URL": "",
        "Condition_Notes": "Tombstone Material: Marble. Status: Excellent standalone preservation.",
        "ec5_uuid": "example-branch-jump-id-9982"
      },
      "geometry": {
        "type": "Point",
        "coordinates": [-85.0842, 39.3858]
      }
    }
  ]
}
